[{"OBJECT_NAME":"STARLINK-34378","OBJECT_ID":"2025-123J","EPOCH":"2025-12-30T05:22:50.672640","MEAN_MOTION":14.98306148,"ECCENTRICITY":0.00031658,"INCLINATION":70.002,"RA_OF_ASC_NODE":9.5898,"ARG_OF_PERICENTER":267.1226,"MEAN_ANOMALY":92.957,"EPHEMERIS_TYPE":0,"CLASSIFICATION_TYPE":"U","NORAD_CAT_ID":64299,"ELEMENT_SET_NO":999,"REV_AT_EPOCH":3121,"BSTAR":-1.7122548e-5,"MEAN_MOTION_DOT":-2.97e-6,"MEAN_MOTION_DDOT":0},{"OBJECT_NAME":"STARLINK-34376","OBJECT_ID":"2025-123K","EPOCH":"2025-12-30T07:34:44.993856","MEAN_MOTION":14.98441252,"ECCENTRICITY":0.00022221,"INCLINATION":70.0035,"RA_OF_ASC_NODE":9.5089,"ARG_OF_PERICENTER":248.3776,"MEAN_ANOMALY":111.7147,"EPHEMERIS_TYPE":0,"CLASSIFICATION_TYPE":"U","NORAD_CAT_ID":64300,"ELEMENT_SET_NO":999,"REV_AT_EPOCH":3122,"BSTAR":0.0033865142,"MEAN_MOTION_DOT":0.00040665,"MEAN_MOTION_DDOT":0},{"OBJECT_NAME":"STARLINK-34372","OBJECT_ID":"2025-123L","EPOCH":"2025-12-30T07:10:44.145984","MEAN_MOTION":14.98339166,"ECCENTRICITY":0.00031527,"INCLINATION":70.0021,"RA_OF_ASC_NODE":9.4484,"ARG_OF_PERICENTER":271.0416,"MEAN_ANOMALY":89.0381,"EPHEMERIS_TYPE":0,"CLASSIFICATION_TYPE":"U","NORAD_CAT_ID":64301,"ELEMENT_SET_NO":999,"REV_AT_EPOCH":3122,"BSTAR":0.00039835627,"MEAN_MOTION_DOT":4.664e-5,"MEAN_MOTION_DDOT":0},{"OBJECT_NAME":"STARLINK-34379","OBJECT_ID":"2025-123M","EPOCH":"2025-12-30T05:39:45.002592","MEAN_MOTION":15.42743186,"ECCENTRICITY":0.00031656,"INCLINATION":70.0019,"RA_OF_ASC_NODE":352.383,"ARG_OF_PERICENTER":264.6612,"MEAN_ANOMALY":95.4209,"EPHEMERIS_TYPE":0,"CLASSIFICATION_TYPE":"U","NORAD_CAT_ID":64302,"ELEMENT_SET_NO":999,"REV_AT_EPOCH":3164,"BSTAR":0.0022200669,"MEAN_MOTION_DOT":0.00098422,"MEAN_MOTION_DDOT":0},{"OBJECT_NAME":"STARLINK-34356","OBJECT_ID":"2025-123N","EPOCH":"2025-12-30T06:22:40.704960","MEAN_MOTION":14.98328518,"ECCENTRICITY":0.00038979,"INCLINATION":70.0018,"RA_OF_ASC_NODE":9.3292,"ARG_OF_PERICENTER":283.8881,"MEAN_ANOMALY":76.1844,"EPHEMERIS_TYPE":0,"CLASSIFICATION_TYPE":"U","NORAD_CAT_ID":64303,"ELEMENT_SET_NO":999,"REV_AT_EPOCH":3122,"BSTAR":0.00065297527,"MEAN_MOTION_DOT":7.707e-5,"MEAN_MOTION_DDOT":0},{"OBJECT_NAME":"STARLINK-34360","OBJECT_ID":"2025-123P","EPOCH":"2025-12-30T07:29:00.274272","MEAN_MOTION":14.98336657,"ECCENTRICITY":0.00030772,"INCLINATION":70.0024,"RA_OF_ASC_NODE":9.4882,"ARG_OF_PERICENTER":270.8399,"MEAN_ANOMALY":89.2407,"EPHEMERIS_TYPE":0,"CLASSIFICATION_TYPE":"U","NORAD_CAT_ID":64304,"ELEMENT_SET_NO":999,"REV_AT_EPOCH":3122,"BSTAR":0.00023075187,"MEAN_MOTION_DOT":2.662e-5,"MEAN_MOTION_DDOT":0},{"OBJECT_NAME":"STARLINK-34383","OBJECT_ID":"2025-123Q","EPOCH":"2025-12-30T06:16:54.655680","MEAN_MOTION":14.98341347,"ECCENTRICITY":0.00031027,"INCLINATION":70.003,"RA_OF_ASC_NODE":9.7138,"ARG_OF_PERICENTER":269.664,"MEAN_ANOMALY":90.4164,"EPHEMERIS_TYPE":0,"CLASSIFICATION_TYPE":"U","NORAD_CAT_ID":64305,"ELEMENT_SET_NO":999,"REV_AT_EPOCH":3121,"BSTAR":0.00028463664,"MEAN_MOTION_DOT":3.306e-5,"MEAN_MOTION_DDOT":0},{"OBJECT_NAME":"STARLINK-34355","OBJECT_ID":"2025-123R","EPOCH":"2025-12-30T06:10:54.175872","MEAN_MOTION":14.98296399,"ECCENTRICITY":6.997e-5,"INCLINATION":70.0049,"RA_OF_ASC_NODE":9.7039,"ARG_OF_PERICENTER":196.118,"MEAN_ANOMALY":163.9957,"EPHEMERIS_TYPE":0,"CLASSIFICATION_TYPE":"U","NORAD_CAT_ID":64306,"ELEMENT_SET_NO":999,"REV_AT_EPOCH":3121,"BSTAR":0.012402467,"MEAN_MOTION_DOT":0.00150992,"MEAN_MOTION_DDOT":0},{"OBJECT_NAME":"STARLINK-34380","OBJECT_ID":"2025-123S","EPOCH":"2025-12-30T07:41:02.153184","MEAN_MOTION":14.98308428,"ECCENTRICITY":0.00033861,"INCLINATION":70.0017,"RA_OF_ASC_NODE":9.5165,"ARG_OF_PERICENTER":291.4587,"MEAN_ANOMALY":68.621,"EPHEMERIS_TYPE":0,"CLASSIFICATION_TYPE":"U","NORAD_CAT_ID":64307,"ELEMENT_SET_NO":999,"REV_AT_EPOCH":3122,"BSTAR":0.0038567073,"MEAN_MOTION_DOT":0.00046204,"MEAN_MOTION_DDOT":0},{"OBJECT_NAME":"STARLINK-34374","OBJECT_ID":"2025-123T","EPOCH":"2025-12-30T07:22:59.613888","MEAN_MOTION":14.98338841,"ECCENTRICITY":0.0003404,"INCLINATION":70.0025,"RA_OF_ASC_NODE":9.4727,"ARG_OF_PERICENTER":269.6418,"MEAN_ANOMALY":90.4351,"EPHEMERIS_TYPE":0,"CLASSIFICATION_TYPE":"U","NORAD_CAT_ID":64308,"ELEMENT_SET_NO":999,"REV_AT_EPOCH":3122,"BSTAR":0.00045473687,"MEAN_MOTION_DOT":5.338e-5,"MEAN_MOTION_DDOT":0},{"OBJECT_NAME":"STARLINK-34370","OBJECT_ID":"2025-123U","EPOCH":"2025-12-30T07:10:58.414080","MEAN_MOTION":14.98340119,"ECCENTRICITY":0.00031439,"INCLINATION":70.0023,"RA_OF_ASC_NODE":9.4425,"ARG_OF_PERICENTER":271.4232,"MEAN_ANOMALY":88.6567,"EPHEMERIS_TYPE":0,"CLASSIFICATION_TYPE":"U","NORAD_CAT_ID":64309,"ELEMENT_SET_NO":999,"REV_AT_EPOCH":3122,"BSTAR":0.000520928,"MEAN_MOTION_DOT":6.13e-5,"MEAN_MOTION_DDOT":0},{"OBJECT_NAME":"STARLINK-34357","OBJECT_ID":"2025-123V","EPOCH":"2025-12-30T07:40:47.218944","MEAN_MOTION":14.98342578,"ECCENTRICITY":0.0002866,"INCLINATION":70.0025,"RA_OF_ASC_NODE":9.5218,"ARG_OF_PERICENTER":268.8141,"MEAN_ANOMALY":91.2689,"EPHEMERIS_TYPE":0,"CLASSIFICATION_TYPE":"U","NORAD_CAT_ID":64310,"ELEMENT_SET_NO":999,"REV_AT_EPOCH":3122,"BSTAR":0.00044616683,"MEAN_MOTION_DOT":5.236e-5,"MEAN_MOTION_DDOT":0},{"OBJECT_NAME":"STARLINK-34368","OBJECT_ID":"2025-123W","EPOCH":"2025-12-30T07:28:45.827328","MEAN_MOTION":14.9834023,"ECCENTRICITY":0.00037542,"INCLINATION":70.0024,"RA_OF_ASC_NODE":9.4832,"ARG_OF_PERICENTER":269.8834,"MEAN_ANOMALY":90.1895,"EPHEMERIS_TYPE":0,"CLASSIFICATION_TYPE":"U","NORAD_CAT_ID":64311,"ELEMENT_SET_NO":999,"REV_AT_EPOCH":3122,"BSTAR":0.00038912266,"MEAN_MOTION_DOT":4.554e-5,"MEAN_MOTION_DDOT":0},{"OBJECT_NAME":"STARLINK-34384","OBJECT_ID":"2025-123X","EPOCH":"2025-12-30T07:16:44.793408","MEAN_MOTION":14.98339426,"ECCENTRICITY":0.00031006,"INCLINATION":70.0027,"RA_OF_ASC_NODE":9.4624,"ARG_OF_PERICENTER":269.0009,"MEAN_ANOMALY":91.0794,"EPHEMERIS_TYPE":0,"CLASSIFICATION_TYPE":"U","NORAD_CAT_ID":64312,"ELEMENT_SET_NO":999,"REV_AT_EPOCH":3122,"BSTAR":0.00043199761,"MEAN_MOTION_DOT":5.067e-5,"MEAN_MOTION_DDOT":0},{"OBJECT_NAME":"STARLINK-34358","OBJECT_ID":"2025-123Y","EPOCH":"2025-12-30T05:28:35.323104","MEAN_MOTION":14.98339104,"ECCENTRICITY":0.00032135,"INCLINATION":70.0029,"RA_OF_ASC_NODE":9.6008,"ARG_OF_PERICENTER":271.7101,"MEAN_ANOMALY":88.369,"EPHEMERIS_TYPE":0,"CLASSIFICATION_TYPE":"U","NORAD_CAT_ID":64313,"ELEMENT_SET_NO":999,"REV_AT_EPOCH":3121,"BSTAR":0.00041970908,"MEAN_MOTION_DOT":4.92e-5,"MEAN_MOTION_DDOT":0},{"OBJECT_NAME":"STARLINK-34354","OBJECT_ID":"2025-123Z","EPOCH":"2025-12-30T06:52:42.201984","MEAN_MOTION":14.98338418,"ECCENTRICITY":0.00029298,"INCLINATION":70.0026,"RA_OF_ASC_NODE":9.4022,"ARG_OF_PERICENTER":269.9608,"MEAN_ANOMALY":90.1215,"EPHEMERIS_TYPE":0,"CLASSIFICATION_TYPE":"U","NORAD_CAT_ID":64314,"ELEMENT_SET_NO":999,"REV_AT_EPOCH":3122,"BSTAR":0.00069264676,"MEAN_MOTION_DOT":8.183e-5,"MEAN_MOTION_DDOT":0}]
