STARLINK-34378          
1 64299U 25123J   25364.22419760 -.00000297  00000+0 -17123-4 0  9991
2 64299  70.0020   9.5898 0003165 267.1226  92.9570 14.98306148 31214
STARLINK-34376          
1 64300U 25123K   25364.31579854  .00040665  00000+0  33865-2 0  9995
2 64300  70.0035   9.5089 0002222 248.3776 111.7147 14.98441252 31226
STARLINK-34372          
1 64301U 25123L   25364.29912206  .00004664  00000+0  39836-3 0  9999
2 64301  70.0021   9.4484 0003152 271.0416  89.0381 14.98339166 31224
STARLINK-34379          
1 64302U 25123M   25364.23593753  .00098422  00000+0  22201-2 0  9998
2 64302  70.0019 352.3830 0003165 264.6612  95.4209 15.42743186 31644
STARLINK-34356          
1 64303U 25123N   25364.26574890  .00007707  00000+0  65298-3 0  9993
2 64303  70.0018   9.3292 0003897 283.8881  76.1844 14.98328518 31221
STARLINK-34360          
1 64304U 25123P   25364.31180873  .00002662  00000+0  23075-3 0  9996
2 64304  70.0024   9.4882 0003077 270.8399  89.2407 14.98336657 31228
STARLINK-34383          
1 64305U 25123Q   25364.26174370  .00003306  00000+0  28464-3 0  9999
2 64305  70.0030   9.7138 0003102 269.6640  90.4164 14.98341347 31212
STARLINK-34355          
1 64306U 25123R   25364.25757148  .00150992  00000+0  12402-1 0  9996
2 64306  70.0049   9.7039 0000699 196.1180 163.9957 14.98296399 31216
STARLINK-34380          
1 64307U 25123S   25364.32016381  .00046204  00000+0  38567-2 0  9993
2 64307  70.0017   9.5165 0003386 291.4587  68.6210 14.98308428 31227
STARLINK-34374          
1 64308U 25123T   25364.30763442  .00005338  00000+0  45474-3 0  9998
2 64308  70.0025   9.4727 0003404 269.6418  90.4351 14.98338841 31222
STARLINK-34370          
1 64309U 25123U   25364.29928720  .00006130  00000+0  52093-3 0  9995
2 64309  70.0023   9.4425 0003143 271.4232  88.6567 14.98340119 31220
STARLINK-34357          
1 64310U 25123V   25364.31999096  .00005236  00000+0  44617-3 0  9993
2 64310  70.0025   9.5218 0002866 268.8141  91.2689 14.98342578 31221
STARLINK-34368          
1 64311U 25123W   25364.31164152  .00004554  00000+0  38912-3 0  9994
2 64311  70.0024   9.4832 0003754 269.8834  90.1895 14.98340230 31229
STARLINK-34384          
1 64312U 25123X   25364.30329622  .00005067  00000+0  43200-3 0  9995
2 64312  70.0027   9.4624 0003100 269.0009  91.0794 14.98339426 31226
STARLINK-34358          
1 64313U 25123Y   25364.22818661  .00004920  00000+0  41971-3 0  9993
2 64313  70.0029   9.6008 0003213 271.7101  88.3690 14.98339104 31211
STARLINK-34354          
1 64314U 25123Z   25364.28659956  .00008183  00000+0  69265-3 0  9991
2 64314  70.0026   9.4022 0002929 269.9608  90.1215 14.98338418 31229
